{
  "type": "FeatureCollection",
  "features": [
    {
      "type": "Feature",
      "properties": {
        "norad_id": 34350,
        "name": "IRIDIUM 33 DEB",
        "group": "iridium-33-debris",
        "lat": -2.169124350656283,
        "lon": -178.44518888264676,
        "alt_km": 735.1022184434505,
        "timestamp": "2025-12-15T22:44:29.314453+00:00",
        "meta_object_name": "IRIDIUM 33 DEB",
        "meta_object_id": "1997-051ES",
        "meta_epoch": "2025-12-15T07:01:05.363616",
        "meta_mean_motion": 14.45392691,
        "meta_eccentricity": 0.00230316,
        "meta_inclination": 86.3276,
        "meta_ra_of_asc_node": 1.6996,
        "meta_arg_of_pericenter": 127.2927,
        "meta_mean_anomaly": 247.757,
        "meta_ephemeris_type": 0,
        "meta_classification_type": "U",
        "meta_norad_cat_id": 34350,
        "meta_element_set_no": 999,
        "meta_rev_at_epoch": 88330,
        "meta_bstar": 0.00033339493,
        "meta_mean_motion_dot": 1.196e-05,
        "meta_mean_motion_ddot": 0,
        "tle_line1": "1 34350U 97051ES  25349.29242319  .00001196  00000+0  33339-3 0  9992",
        "tle_line2": "2 34350  86.3276   1.6996 0023031 127.2927 247.7570 14.45392691883307"
      },
      "geometry": {
        "type": "Point",
        "coordinates": [
          -178.44518888264676,
          -2.169124350656283
        ]
      }
    },
    {
      "type": "Feature",
      "properties": {
        "norad_id": 34366,
        "name": "IRIDIUM 33 DEB",
        "group": "iridium-33-debris",
        "lat": -69.87529565486149,
        "lon": -122.10543430849366,
        "alt_km": 727.8947786510125,
        "timestamp": "2025-12-15T22:44:29.314463+00:00",
        "meta_object_name": "IRIDIUM 33 DEB",
        "meta_object_id": "1997-051FJ",
        "meta_epoch": "2025-12-15T05:21:52.451136",
        "meta_mean_motion": 14.54081827,
        "meta_eccentricity": 0.00226488,
        "meta_inclination": 86.3701,
        "meta_ra_of_asc_node": 48.2333,
        "meta_arg_of_pericenter": 131.8237,
        "meta_mean_anomaly": 290.4174,
        "meta_ephemeris_type": 0,
        "meta_classification_type": "U",
        "meta_norad_cat_id": 34366,
        "meta_element_set_no": 999,
        "meta_rev_at_epoch": 88218,
        "meta_bstar": 0.00070731798,
        "meta_mean_motion_dot": 3.016e-05,
        "meta_mean_motion_ddot": 0,
        "tle_line1": "1 34366U 97051FJ  25349.22352374  .00003016  00000+0  70732-3 0  9996",
        "tle_line2": "2 34366  86.3701  48.2333 0022648 131.8237 290.4174 14.54081827882183"
      },
      "geometry": {
        "type": "Point",
        "coordinates": [
          -122.10543430849366,
          -69.87529565486149
        ]
      }
    },
    {
      "type": "Feature",
      "properties": {
        "norad_id": 34375,
        "name": "IRIDIUM 33 DEB",
        "group": "iridium-33-debris",
        "lat": 70.7863737950726,
        "lon": -8.906184242959727,
        "alt_km": 751.4483583855972,
        "timestamp": "2025-12-15T22:44:29.314474+00:00",
        "meta_object_name": "IRIDIUM 33 DEB",
        "meta_object_id": "1997-051FT",
        "meta_epoch": "2025-12-15T00:56:33.827424",
        "meta_mean_motion": 14.17996256,
        "meta_eccentricity": 0.01034429,
        "meta_inclination": 86.4324,
        "meta_ra_of_asc_node": 181.7722,
        "meta_arg_of_pericenter": 119.5182,
        "meta_mean_anomaly": 35.8016,
        "meta_ephemeris_type": 0,
        "meta_classification_type": "U",
        "meta_norad_cat_id": 34375,
        "meta_element_set_no": 999,
        "meta_rev_at_epoch": 86744,
        "meta_bstar": 0.00043375333,
        "meta_mean_motion_dot": 9.56e-06,
        "meta_mean_motion_ddot": 0,
        "tle_line1": "1 34375U 97051FT  25349.03928041  .00000956  00000+0  43375-3 0  9998",
        "tle_line2": "2 34375  86.4324 181.7722 0103442 119.5182  35.8016 14.17996256867442"
      },
      "geometry": {
        "type": "Point",
        "coordinates": [
          -8.906184242959727,
          70.7863737950726
        ]
      }
    },
    {
      "type": "Feature",
      "properties": {
        "norad_id": 34376,
        "name": "IRIDIUM 33 DEB",
        "group": "iridium-33-debris",
        "lat": -83.00292208103048,
        "lon": -26.736767042904493,
        "alt_km": 701.8710565832025,
        "timestamp": "2025-12-15T22:44:29.314484+00:00",
        "meta_object_name": "IRIDIUM 33 DEB",
        "meta_object_id": "1997-051FU",
        "meta_epoch": "2025-12-15T08:20:58.080480",
        "meta_mean_motion": 14.62608414,
        "meta_eccentricity": 0.00274923,
        "meta_inclination": 86.2984,
        "meta_ra_of_asc_node": 5.3675,
        "meta_arg_of_pericenter": 157.9871,
        "meta_mean_anomaly": 202.2528,
        "meta_ephemeris_type": 0,
        "meta_classification_type": "U",
        "meta_norad_cat_id": 34376,
        "meta_element_set_no": 999,
        "meta_rev_at_epoch": 88045,
        "meta_bstar": 0.00095353915,
        "meta_mean_motion_dot": 4.892e-05,
        "meta_mean_motion_ddot": 0,
        "tle_line1": "1 34376U 97051FU  25349.34789445  .00004892  00000+0  95354-3 0  9993",
        "tle_line2": "2 34376  86.2984   5.3675 0027492 157.9871 202.2528 14.62608414880452"
      },
      "geometry": {
        "type": "Point",
        "coordinates": [
          -26.736767042904493,
          -83.00292208103048
        ]
      }
    },
    {
      "type": "Feature",
      "properties": {
        "norad_id": 34486,
        "name": "IRIDIUM 33 DEB",
        "group": "iridium-33-debris",
        "lat": 23.550394438715312,
        "lon": -171.0309745683955,
        "alt_km": 573.2028256600379,
        "timestamp": "2025-12-15T22:44:29.314494+00:00",
        "meta_object_name": "IRIDIUM 33 DEB",
        "meta_object_id": "1997-051GB",
        "meta_epoch": "2025-12-15T07:39:20.571840",
        "meta_mean_motion": 14.95929492,
        "meta_eccentricity": 0.00138879,
        "meta_inclination": 86.3933,
        "meta_ra_of_asc_node": 10.8345,
        "meta_arg_of_pericenter": 105.9317,
        "meta_mean_anomaly": 267.3911,
        "meta_ephemeris_type": 0,
        "meta_classification_type": "U",
        "meta_norad_cat_id": 34486,
        "meta_element_set_no": 999,
        "meta_rev_at_epoch": 89025,
        "meta_bstar": 0.0012770954,
        "meta_mean_motion_dot": 0.00014361,
        "meta_mean_motion_ddot": 0,
        "tle_line1": "1 34486U 97051GB  25349.31898810  .00014361  00000+0  12771-2 0  9992",
        "tle_line2": "2 34486  86.3933  10.8345 0013887 105.9317 267.3911 14.95929492890250"
      },
      "geometry": {
        "type": "Point",
        "coordinates": [
          -171.0309745683955,
          23.550394438715312
        ]
      }
    },
    {
      "type": "Feature",
      "properties": {
        "norad_id": 34487,
        "name": "IRIDIUM 33 DEB",
        "group": "iridium-33-debris",
        "lat": -75.31410004463312,
        "lon": -3.1259666812701736,
        "alt_km": 778.0807532146719,
        "timestamp": "2025-12-15T22:44:29.314504+00:00",
        "meta_object_name": "IRIDIUM 33 DEB",
        "meta_object_id": "1997-051GC",
        "meta_epoch": "2025-12-15T08:23:34.253664",
        "meta_mean_motion": 14.43219441,
        "meta_eccentricity": 0.00329501,
        "meta_inclination": 86.3435,
        "meta_ra_of_asc_node": 11.2537,
        "meta_arg_of_pericenter": 120.2163,
        "meta_mean_anomaly": 299.7021,
        "meta_ephemeris_type": 0,
        "meta_classification_type": "U",
        "meta_norad_cat_id": 34487,
        "meta_element_set_no": 999,
        "meta_rev_at_epoch": 88286,
        "meta_bstar": 0.00018955044,
        "meta_mean_motion_dot": 6.62e-06,
        "meta_mean_motion_ddot": 0,
        "tle_line1": "1 34487U 97051GC  25349.34970201  .00000662  00000+0  18955-3 0  9991",
        "tle_line2": "2 34487  86.3435  11.2537 0032950 120.2163 299.7021 14.43219441882865"
      },
      "geometry": {
        "type": "Point",
        "coordinates": [
          -3.1259666812701736,
          -75.31410004463312
        ]
      }
    },
    {
      "type": "Feature",
      "properties": {
        "norad_id": 34488,
        "name": "IRIDIUM 33 DEB",
        "group": "iridium-33-debris",
        "lat": 8.386288953393178,
        "lon": 123.68064707102461,
        "alt_km": 482.3005094922373,
        "timestamp": "2025-12-15T22:44:29.314515+00:00",
        "meta_object_name": "IRIDIUM 33 DEB",
        "meta_object_id": "1997-051GD",
        "meta_epoch": "2025-12-15T07:52:10.159104",
        "meta_mean_motion": 15.30106772,
        "meta_eccentricity": 0.00125058,
        "meta_inclination": 86.3226,
        "meta_ra_of_asc_node": 304.5313,
        "meta_arg_of_pericenter": 47.2926,
        "meta_mean_anomaly": 312.9373,
        "meta_ephemeris_type": 0,
        "meta_classification_type": "U",
        "meta_norad_cat_id": 34488,
        "meta_element_set_no": 999,
        "meta_rev_at_epoch": 89279,
        "meta_bstar": 0.0029801446,
        "meta_mean_motion_dot": 0.00087866,
        "meta_mean_motion_ddot": 0,
        "tle_line1": "1 34488U 97051GD  25349.32789536  .00087866  00000+0  29801-2 0  9991",
        "tle_line2": "2 34488  86.3226 304.5313 0012505  47.2926 312.9373 15.30106772892793"
      },
      "geometry": {
        "type": "Point",
        "coordinates": [
          123.68064707102461,
          8.386288953393178
        ]
      }
    }
  ]
}